CCSDS_OMM_VERS = 2.0
CREATION_DATE  = 
ORIGINATOR     = 

OBJECT_NAME    = 1998-067XK
OBJECT_ID      = 1998-067XK
CENTER_NAME    = EARTH
REF_FRAME      = TEME
TIME_SYSTEM    = UTC
MEAN_ELEMENT_THEORY = SGP/SGP4

EPOCH          = 2026-01-30T19:35:23.817696
MEAN_MOTION    = 15.80154245
ECCENTRICITY   = .00039445
INCLINATION    = 51.6232
RA_OF_ASC_NODE = 245.9736
ARG_OF_PERICENTER = 188.0719
MEAN_ANOMALY   = 172.0219

EPHEMERIS_TYPE = 0
CLASSIFICATION_TYPE = U
NORAD_CAT_ID   = 65731
ELEMENT_SET_NO = 999
REV_AT_EPOCH   = 2086
BSTAR          = .10396863E-2
MEAN_MOTION_DOT = .203017E-2
MEAN_MOTION_DDOT = 0

CCSDS_OMM_VERS = 2.0
CREATION_DATE  = 
ORIGINATOR     = 

OBJECT_NAME    = RSP-03
OBJECT_ID      = 1998-067XL
CENTER_NAME    = EARTH
REF_FRAME      = TEME
TIME_SYSTEM    = UTC
MEAN_ELEMENT_THEORY = SGP/SGP4

EPOCH          = 2026-01-30T20:03:12.729600
MEAN_MOTION    = 15.91475705
ECCENTRICITY   = .00053328
INCLINATION    = 51.6184
RA_OF_ASC_NODE = 243.0468
ARG_OF_PERICENTER = 212.7899
MEAN_ANOMALY   = 147.2777

EPHEMERIS_TYPE = 0
CLASSIFICATION_TYPE = U
NORAD_CAT_ID   = 65732
ELEMENT_SET_NO = 999
REV_AT_EPOCH   = 2091
BSTAR          = .12908576E-2
MEAN_MOTION_DOT = .424853E-2
MEAN_MOTION_DDOT = .79895939E-4

CCSDS_OMM_VERS = 2.0
CREATION_DATE  = 
ORIGINATOR     = 

OBJECT_NAME    = YOTSUBA-KULOVER
OBJECT_ID      = 1998-067XN
CENTER_NAME    = EARTH
REF_FRAME      = TEME
TIME_SYSTEM    = UTC
MEAN_ELEMENT_THEORY = SGP/SGP4

EPOCH          = 2026-01-30T17:40:32.702304
MEAN_MOTION    = 15.68647334
ECCENTRICITY   = .00043281
INCLINATION    = 51.6252
RA_OF_ASC_NODE = 252.2198
ARG_OF_PERICENTER = 192.8598
MEAN_ANOMALY   = 167.2289

EPHEMERIS_TYPE = 0
CLASSIFICATION_TYPE = U
NORAD_CAT_ID   = 65941
ELEMENT_SET_NO = 999
REV_AT_EPOCH   = 1752
BSTAR          = .88289108E-3
MEAN_MOTION_DOT = .103274E-2
MEAN_MOTION_DDOT = 0

CCSDS_OMM_VERS = 2.0
CREATION_DATE  = 
ORIGINATOR     = 

OBJECT_NAME    = BOTAN
OBJECT_ID      = 1998-067XP
CENTER_NAME    = EARTH
REF_FRAME      = TEME
TIME_SYSTEM    = UTC
MEAN_ELEMENT_THEORY = SGP/SGP4

EPOCH          = 2026-01-30T20:50:57.014880
MEAN_MOTION    = 15.79207269
ECCENTRICITY   = .00054417
INCLINATION    = 51.6192
RA_OF_ASC_NODE = 248.5734
ARG_OF_PERICENTER = 208.6473
MEAN_ANOMALY   = 151.4230

EPHEMERIS_TYPE = 0
CLASSIFICATION_TYPE = U
NORAD_CAT_ID   = 65942
ELEMENT_SET_NO = 999
REV_AT_EPOCH   = 1758
BSTAR          = .12277883E-2
MEAN_MOTION_DOT = .230561E-2
MEAN_MOTION_DDOT = 0

CCSDS_OMM_VERS = 2.0
CREATION_DATE  = 
ORIGINATOR     = 

OBJECT_NAME    = E-KAGAKU-1
OBJECT_ID      = 1998-067XQ
CENTER_NAME    = EARTH
REF_FRAME      = TEME
TIME_SYSTEM    = UTC
MEAN_ELEMENT_THEORY = SGP/SGP4

EPOCH          = 2026-01-30T20:44:28.519008
MEAN_MOTION    = 15.68604781
ECCENTRICITY   = .00032769
INCLINATION    = 51.6269
RA_OF_ASC_NODE = 251.5815
ARG_OF_PERICENTER = 204.2872
MEAN_ANOMALY   = 155.7971

EPHEMERIS_TYPE = 0
CLASSIFICATION_TYPE = U
NORAD_CAT_ID   = 65943
ELEMENT_SET_NO = 999
REV_AT_EPOCH   = 1754
BSTAR          = .81352104E-3
MEAN_MOTION_DOT = .94832E-3
MEAN_MOTION_DDOT = 0

CCSDS_OMM_VERS = 2.0
CREATION_DATE  = 
ORIGINATOR     = 

OBJECT_NAME    = HRC MONOBLOCK CAMERA
OBJECT_ID      = 1998-067XR
CENTER_NAME    = EARTH
REF_FRAME      = TEME
TIME_SYSTEM    = UTC
MEAN_ELEMENT_THEORY = SGP/SGP4

EPOCH          = 2026-01-30T20:17:36.746880
MEAN_MOTION    = 15.58342064
ECCENTRICITY   = .00002807
INCLINATION    = 51.6281
RA_OF_ASC_NODE = 255.9555
ARG_OF_PERICENTER = 31.7516
MEAN_ANOMALY   = 328.3493

EPHEMERIS_TYPE = 0
CLASSIFICATION_TYPE = U
NORAD_CAT_ID   = 66052
ELEMENT_SET_NO = 999
REV_AT_EPOCH   = 1648
BSTAR          = .55276037E-3
MEAN_MOTION_DOT = .42505E-3
MEAN_MOTION_DDOT = 0

CCSDS_OMM_VERS = 2.0
CREATION_DATE  = 
ORIGINATOR     = 

OBJECT_NAME    = HTV-X1
OBJECT_ID      = 2025-241A
CENTER_NAME    = EARTH
REF_FRAME      = TEME
TIME_SYSTEM    = UTC
MEAN_ELEMENT_THEORY = SGP/SGP4

EPOCH          = 2026-01-30T21:17:13.546176
MEAN_MOTION    = 15.48295574
ECCENTRICITY   = .00110817
INCLINATION    = 51.6324
RA_OF_ASC_NODE = 259.2282
ARG_OF_PERICENTER = 46.9871
MEAN_ANOMALY   = 313.2044

EPHEMERIS_TYPE = 0
CLASSIFICATION_TYPE = U
NORAD_CAT_ID   = 66174
ELEMENT_SET_NO = 999
REV_AT_EPOCH   = 51
BSTAR          = .16121789E-3
MEAN_MOTION_DOT = .824E-4
MEAN_MOTION_DDOT = 0

CCSDS_OMM_VERS = 2.0
CREATION_DATE  = 
ORIGINATOR     = 

OBJECT_NAME    = SZ-21 MODULE
OBJECT_ID      = 2025-246C
CENTER_NAME    = EARTH
REF_FRAME      = TEME
TIME_SYSTEM    = UTC
MEAN_ELEMENT_THEORY = SGP/SGP4

EPOCH          = 2026-01-30T20:03:48.494016
MEAN_MOTION    = 15.65707701
ECCENTRICITY   = .00034152
INCLINATION    = 41.4761
RA_OF_ASC_NODE = 75.8706
ARG_OF_PERICENTER = 259.1766
MEAN_ANOMALY   = 100.8691

EPHEMERIS_TYPE = 0
CLASSIFICATION_TYPE = U
NORAD_CAT_ID   = 66515
ELEMENT_SET_NO = 999
REV_AT_EPOCH   = 1213
BSTAR          = .31391486E-3
MEAN_MOTION_DOT = .32437E-3
MEAN_MOTION_DDOT = 0

CCSDS_OMM_VERS = 2.0
CREATION_DATE  = 
ORIGINATOR     = 

OBJECT_NAME    = SHENZHOU-22
OBJECT_ID      = 2025-272A
CENTER_NAME    = EARTH
REF_FRAME      = TEME
TIME_SYSTEM    = UTC
MEAN_ELEMENT_THEORY = SGP/SGP4

EPOCH          = 2026-01-30T04:06:26.862336
MEAN_MOTION    = 15.61350410
ECCENTRICITY   = .00090867
INCLINATION    = 41.4674
RA_OF_ASC_NODE = 82.2287
ARG_OF_PERICENTER = 36.5911
MEAN_ANOMALY   = 323.5548

EPHEMERIS_TYPE = 0
CLASSIFICATION_TYPE = U
NORAD_CAT_ID   = 66645
ELEMENT_SET_NO = 999
REV_AT_EPOCH   = 26764
BSTAR          = .3748084E-3
MEAN_MOTION_DOT = .3269E-3
MEAN_MOTION_DDOT = 0

CCSDS_OMM_VERS = 2.0
CREATION_DATE  = 
ORIGINATOR     = 

OBJECT_NAME    = SOYUZ-MS 28
OBJECT_ID      = 2025-275A
CENTER_NAME    = EARTH
REF_FRAME      = TEME
TIME_SYSTEM    = UTC
MEAN_ELEMENT_THEORY = SGP/SGP4

EPOCH          = 2026-01-30T21:17:13.546176
MEAN_MOTION    = 15.48295574
ECCENTRICITY   = .00110817
INCLINATION    = 51.6324
RA_OF_ASC_NODE = 259.2282
ARG_OF_PERICENTER = 46.9871
MEAN_ANOMALY   = 313.2044

EPHEMERIS_TYPE = 0
CLASSIFICATION_TYPE = U
NORAD_CAT_ID   = 66664
ELEMENT_SET_NO = 999
REV_AT_EPOCH   = 128
BSTAR          = .16121789E-3
MEAN_MOTION_DOT = .824E-4
MEAN_MOTION_DDOT = 0

CCSDS_OMM_VERS = 2.0
CREATION_DATE  = 
ORIGINATOR     = 

OBJECT_NAME    = DUPLEX
OBJECT_ID      = 1998-067XS
CENTER_NAME    = EARTH
REF_FRAME      = TEME
TIME_SYSTEM    = UTC
MEAN_ELEMENT_THEORY = SGP/SGP4

EPOCH          = 2026-01-30T22:09:35.235936
MEAN_MOTION    = 15.53569248
ECCENTRICITY   = .00015593
INCLINATION    = 51.6299
RA_OF_ASC_NODE = 257.9730
ARG_OF_PERICENTER = 80.7038
MEAN_ANOMALY   = 279.4129

EPHEMERIS_TYPE = 0
CLASSIFICATION_TYPE = U
NORAD_CAT_ID   = 66906
ELEMENT_SET_NO = 999
REV_AT_EPOCH   = 925
BSTAR          = .44212028E-3
MEAN_MOTION_DOT = .28303E-3
MEAN_MOTION_DDOT = 0

CCSDS_OMM_VERS = 2.0
CREATION_DATE  = 
ORIGINATOR     = 

OBJECT_NAME    = 1998-067XT
OBJECT_ID      = 1998-067XT
CENTER_NAME    = EARTH
REF_FRAME      = TEME
TIME_SYSTEM    = UTC
MEAN_ELEMENT_THEORY = SGP/SGP4

EPOCH          = 2026-01-30T19:42:44.733312
MEAN_MOTION    = 15.59728325
ECCENTRICITY   = .0002853
INCLINATION    = 51.6276
RA_OF_ASC_NODE = 257.2918
ARG_OF_PERICENTER = 156.8318
MEAN_ANOMALY   = 203.2804

EPHEMERIS_TYPE = 0
CLASSIFICATION_TYPE = U
NORAD_CAT_ID   = 66907
ELEMENT_SET_NO = 999
REV_AT_EPOCH   = 925
BSTAR          = .10835056E-2
MEAN_MOTION_DOT = .88865E-3
MEAN_MOTION_DDOT = 0

